C/2019 T4 (ATLAS),e,53.6181,199.9570,351.2156,1001,0.0000311,0.99576040,0.0000,06/09.3723/2022,2000,g  5.0,4.0
# From MPC119998
P/2019 T5 (ATLAS),e,33.4266,247.6863,189.5952,8.008170,0.0434915,0.80917436,22.5671,01/01.0/2021,2000,g 15.0,4.0
# From MPC119998
P/2019 T6 (PANSTARRS),e,18.6949,71.3029,328.9067,5.434179,0.0778042,0.62247776,32.6949,01/01.0/2021,2000,g 15.5,4.0
# From MPC118096
P/2019 U4 (PANSTARRS),e,11.6915,200.0221,180.9680,3.520510,0.1492092,0.47545626,70.2170,01/01.0/2021,2000,g 19.0,4.0
# From MPC118844
A/2019 U5,h,03/30.2157/2023,113.5250,2.6811,181.5950,1.000805,3.621214,2000,10.0,2.0
# From MPEC 2020-AA5
C/2019 U6,e,60.9997,235.7009,329.6601,421.8653,0.0001137,0.99783289,0.0000,06/18.8182/2020,2000,g 14.5,2.0
# From MPC119998
C/2019 V1 (Borisov),e,61.8624,83.2022,51.1930,2000,0.0000110,0.99845150,0.0000,07/16.5391/2020,2000,g 11.0,4.0
# From MPC119998
P/2019 V2 (Groeller),e,11.8052,189.1611,336.3457,7.512718,0.0478639,0.33225758,3.3611,01/01.0/2021,2000,g 10.0,4.0
# From MPC119998
P/2019 W1 (PANSTARRS),e,23.4607,35.4038,18.7080,4.550369,0.1015393,0.26625180,61.3535,01/01.0/2021,2000,g 12.9,4.0
# From MPC119998
P/2019 X1 (Pruyne),e,10.2446,43.7022,36.5961,6.177344,0.0641950,0.30348468,34.1057,01/01.0/2021,2000,g 10.4,4.0
# From MPC119999
C/2019 Y1 (ATLAS),e,73.2572,31.5187,57.9738,86.01810,0.0012354,0.99033274,0.0000,03/15.5897/2020,2000,g 13.7,4.0
# From MPEC 2020-L06
C/2019 Y4 (ATLAS),e,45.3827,120.5721,177.3102,543.9209,0.0000777,0.99953494,0.0000,05/31.0589/2020,2000,g 11.8,6.0
# From MPEC 2020-L06
C/2019 Y4-A (ATLAS),h,05/31.0420/2020,45.8245,120.9283,177.2527,1.001349,0.251088,2000,11.6,6.0
# From MPEC 2020-L06
C/2019 Y4-B (ATLAS),e,45.4591,120.6242,177.3860,1116,0.0000264,0.99977358,0.0000,05/31.0207/2020,2000,g 12.8,6.0
# From MPEC 2020-L06
C/2019 Y4-C (ATLAS),h,05/31.0002/2020,45.6068,120.6540,177.2861,1.002067,0.252138,2000,12.7,6.0
# From MPEC 2020-L06
C/2019 Y4-D (ATLAS),e,45.6482,121.0346,177.4249,67.36509,0.0017826,0.99626608,0.0000,05/31.1174/2020,2000,g 12.5,6.0
# From MPEC 2020-L06
C/2020 A2 (Iwamoto),e,120.7470,286.3785,68.2103,1271,0.0000217,0.99923067,0.0000,01/08.3495/2020,2000,g 13.5,4.0
# From MPEC 2020-L06
C/2020 A3 (ATLAS),h,07/29.6805/2019,146.7767,120.3774,271.1686,1.025134,5.839481,2000,8.0,4.0
# From MPEC 2020-L06
C/2020 B3 (Rankin),e,20.7055,185.8277,325.0745,1473,0.0000174,0.99773011,0.0000,10/19.7800/2019,2000,g 13.0,4.0
# From MPEC 2020-L06
C/2020 F2 (ATLAS),h,07/16.6196/2022,163.5761,250.2518,48.3741,1.002784,8.816869,2000,4.5,4.0
# From MPEC 2020-L06
C/2020 F3 (NEOWISE),e,128.9308,61.0130,37.2679,362.9984,0.0001425,0.99918814,0.0000,07/03.6811/2020,2000,g 12.5,3.2
# From MPEC 2020-L06
C/2020 F5 (MASTER),h,03/24.0035/2021,51.7024,350.6230,311.0275,1.002387,4.326729,2000,6.5,3.2
# From MPEC 2020-L06
C/2020 F6 (PANSTARRS),e,174.5818,207.8824,344.6042,384.5027,0.0001307,0.99086849,0.0000,04/11.6281/2020,2000,g 14.5,2.8
# From MPEC 2020-L06
A/2020 F7,e,93.9523,321.8864,227.9860,770.5306,0.0000461,0.99308041,0.0000,11/14.1089/2021,2000,g 12.0,2.0
# From MPEC 2020-KB7
C/2020 F8 (SWAN),e,110.7906,260.0064,68.2193,273.6338,0.0002177,0.99842732,0.0000,05/27.5689/2020,2000,g 10.0,4.0
# From MPEC 2020-L06
P/2020 G1 (Pimentel),e,18.4763,240.0935,207.6631,3.611262,0.1436202,0.85990312,41.5926,01/01.0/2021,2000,g 17.0,4.0
# From MPEC 2020-L06
C/2020 H2 (Pruyne),e,125.0422,277.6373,26.7000,187.0590,0.0003852,0.99554318,0.0000,04/27.5965/2020,2000,g 18.0,4.0
# From MPEC 2020-HM1
C/2020 H3 (Wierzchos),p,06/05.7162/2020,62.5292,30.4456,2.300288,270.6227,2000,13.5,4.0
# From MPEC 2020-L06
C/2020 H4 (Leonard),e,84.5149,307.7368,117.6111,48.18600,0.0029466,0.98075801,0.0000,08/29.5180/2020,2000,g 15.0,3.2
# From MPEC 2020-L06
C/2020 H5 (Robinson),e,70.2517,210.5984,325.0649,1073,0.0000280,0.99127149,0.0000,11/14.8818/2020,2000,g  5.0,4.0
# From MPEC 2020-L06
C/2020 H6 (ATLAS),h,09/30.9571/2021,79.9658,213.6982,20.3145,1.000884,4.704717,2000,8.0,3.2
# From MPEC 2020-KB7
C/2020 H7 (Lemmon),e,135.9235,323.5194,82.6780,1405,0.0000187,0.99685380,0.0000,06/02.9510/2020,2000,g 11.0,4.0
# From MPEC 2020-KB7
C/2020 H8 (PANSTARRS),p,06/06.7207/2020,99.7116,129.2192,4.678446,68.3225,2000,10.5,4.0
# From MPEC 2020-L06
A/2020 H9,e,137.8717,213.1215,312.8868,528.7257,0.0000811,0.99512185,0.0000,12/21.3486/2019,2000,g 18.0,2.0
# From MPEC 2020-L06
C/2020 J1 (SONEAR),e,142.2935,226.5907,341.7226,482.5513,0.0000930,0.99303702,0.0000,04/19.3581/2021,2000,g  8.5,3.2
# From MPEC 2020-L06
C/2020 K1 (PANSTARRS),h,05/08.0916/2023,89.6529,94.3653,213.9127,1.000821,3.074278,2000,5.5,4.0
# From MPEC 2020-KF5
C/2020 K2 (PANSTARRS),p,12/30.6730/2018,89.7510,34.2348,8.177098,285.5819,2000,6.5,4.0
# From MPEC 2020-KF9
C/2020 K3 (Leonard),p,06/01.0032/2020,129.0152,64.4924,1.583069,28.3546,2000,14.5,4.0
# From MPEC 2020-L06
C/2020 K4 (PANSTARRS),e,125.5619,264.0942,308.7637,23.87757,0.0084473,0.92659049,2.5618,01/01.0/2021,2000,g 16.5,4.0
# From MPEC 2020-L06
C/2020 K5 (PANSTARRS),h,06/05.5864/2021,67.1610,86.1619,249.5955,1.001546,1.535462,2000,11.0,4.0
# From MPEC 2020-L06
C/2020 K6 (Rankin),h,08/26.5868/2021,103.7963,291.5619,41.7080,1.000467,5.992821,2000,8.0,4.0
# From MPEC 2020-L09
C/2020 K7 (PANSTARRS),p,10/05.3027/2021,34.5520,60.8413,5.644571,287.4776,2000,8.0,4.0
# From MPEC 2020-SI8
C/2020 K8 (Catalina-ATLAS),h,09/14.5156/2020,31.4141,181.5195,260.0534,1.000305,0.474600,2000,15.0,3.2
# From MPEC 2020-W26
P/2020 K9 (Lemmon-PANSTARRS),e,23.2084,166.2394,196.8687,4.200612,0.1144815,0.32165714,355.2166,01/01.0/2021,2000,g 12.5,4.0
# From MPEC 2020-W26
C/2020 M3 (ATLAS),e,23.4734,71.2501,328.4471,26.81977,0.0070961,0.95271198,0.4781,01/01.0/2021,2000,g 14.5,4.0
# From MPEC 2020-W26
C/2020 M5 (ATLAS),e,93.2223,352.0976,126.3384,9813,0.0000010,0.99969383,0.0000,08/19.8877/2021,2000,g  9.0,4.0
# From MPEC 2020-W26
C/2020 N1 (PANSTARRS),h,03/12.2374/2021,29.7038,279.9835,186.7711,1.000422,1.320749,2000,12.5,4.0
# From MPEC 2020-W26
C/2020 N2 (ATLAS),e,161.0335,257.0715,331.2011,107.9648,0.0008786,0.98338387,0.0000,08/23.6680/2020,2000,g 16.0,3.2
# From MPEC 2020-W26
C/2020 O2 (Amaral),h,08/28.2011/2021,71.7519,256.7527,10.2358,1.001460,4.864042,2000,8.0,3.2
# From MPEC 2020-W26
C/2020 P1 (NEOWISE),h,10/20.1793/2020,45.0511,53.5349,8.8967,1.000245,0.342211,2000,14.0,3.2
# From MPEC 2020-W26
C/2020 P3 (ATLAS),e,61.8873,19.4972,82.2486,6602,0.0000018,0.99896810,0.0000,04/20.9410/2021,2000,g  6.0,4.0
# From MPEC 2020-W26
C/2020 Q1 (Borisov),e,142.9247,52.3892,9.9181,61.82437,0.0020275,0.97872726,0.0000,08/14.6905/2020,2000,g 14.0,4.0
# From MPEC 2020-W26
C/2020 R2 (PANSTARRS),e,53.2217,195.0930,211.6847,400.1507,0.0001231,0.98827190,0.0000,02/24.1916/2022,2000,g  9.0,4.0
# From MPEC 2020-W26
C/2020 R4 (ATLAS),e,164.4630,323.2733,46.7127,97.38342,0.0010256,0.98943771,0.0000,03/01.9370/2021,2000,g 13.5,4.0
# From MPEC 2020-K19
P/2020 M1 (PANSTARRS),e,8.6386,142.9179,68.0405,5.102896,0.0855025,0.47831279,32.1655,01/01.0/2021,2000,g 14.5,4.0
# From MPEC 2020-N01
P/2020 M2 (Lemmon),e,10.9283,8.2083,14.4077,3.826442,0.1316774,0.40494565,25.7690,01/01.0/2021,2000,g 12.0,4.0
# From MPEC 2020-UR0
C/2020 M3 (ATLAS),e,23.4734,71.2500,328.4473,26.81922,0.0070963,0.95271104,0.4781,01/01.0/2021,2000,g 14.5,4.0
# From MPEC 2020-K19
A/2020 M4,e,160.1256,348.6311,104.6409,5783,0.0000022,0.99897075,0.0000,11/23.7996/2020,2000,g 14.5,2.0
# From MPEC 2020-UR0
C/2020 M5 (ATLAS),e,93.2223,352.0976,126.3383,9935,0.0000010,0.99969759,0.0000,08/19.8871/2021,2000,g  9.0,4.0
# From MPEC 2020-UR0
C/2020 N1 (PANSTARRS),h,03/12.2382/2021,29.7038,279.9842,186.7701,1.000429,1.320760,2000,12.5,4.0
# From MPEC 2020-UR0
C/2020 N2 (ATLAS),e,161.0335,257.0715,331.2011,107.9648,0.0008786,0.98338387,0.0000,08/23.6680/2020,2000,g 16.0,3.2
# From MPEC 2020-SI8
P/2020 O1 (Lemmon-PANSTARRS),e,5.2253,175.9762,104.6540,2.645231,0.2290914,0.11961575,55.6394,01/01.0/2021,2000,g 15.5,4.0
# From MPEC 2020-UR0
C/2020 O2 (Amaral),h,08/28.2011/2021,71.7519,256.7527,10.2358,1.001460,4.864042,2000,8.0,3.2
# From MPEC 2020-SI8
P/2020 O3 (PANSTARRS),e,8.4411,266.8706,81.4430,4.657543,0.0980548,0.10539023,357.2012,01/01.0/2021,2000,g 12.0,4.0
# From MPEC 2020-UR0
C/2020 P1 (NEOWISE),h,10/20.1793/2020,45.0520,53.5367,8.8969,1.000243,0.342196,2000,14.0,3.2
# From MPEC 2020-UR0
C/2020 P3 (ATLAS),e,61.8873,19.4971,82.2469,6594,0.0000018,0.99896683,0.0000,04/20.9198/2021,2000,g  6.0,4.0
# From MPEC 2020-QN1
C/2020 P4-A (SOHO),h,08/08.2193/2020,26.3341,175.2035,177.4783,1.002093,0.090747,2000,5.3,6.0
# From MPEC 2020-QN1
C/2020 P4-B (SOHO),h,08/08.1285/2020,27.3040,171.4960,173.4063,1.000488,0.098296,2000,0.0,6.0
# From MPEC 2020-QN1
C/2020 P4-C (SOHO),h,08/06.8011/2020,37.4584,164.0355,116.7406,1.012863,0.086564,2000,-1.6,6.0
# From MPEC 2020-SI8
C/2020 Q1 (Borisov),e,142.9242,52.3638,9.8100,52.75084,0.0025725,0.97508090,0.0000,08/14.5738/2020,2000,g 14.0,4.0
# From MPEC 2020-UR0
C/2020 R2 (PANSTARRS),e,53.2198,195.0941,211.6806,395.6960,0.0001252,0.98813945,0.0000,02/24.1847/2022,2000,g  9.0,4.0
# From MPEC 2020-UR0
C/2020 R4 (ATLAS),e,164.4631,323.2724,46.7100,97.46902,0.0010242,0.98944662,0.0000,03/01.9376/2021,2000,g 13.5,4.0
# From MPEC 2020-W26
P/2020 R5 (PANSTARRS),e,11.4543,272.9705,82.3393,4.979268,0.0887066,0.31451290,19.3109,01/01.0/2021,2000,g  9.5,6.0
# From MPEC 2020-W26
C/2020 R6 (Rankin),e,82.8235,12.1744,271.9544,583.7615,0.0000699,0.99464521,0.0000,09/10.2788/2019,2000,g 11.0,4.0
# From MPEC 2020-W26
C/2020 R7 (ATLAS),e,114.8931,268.2854,347.8053,9790,0.0000010,0.99969793,0.0000,09/16.2223/2022,2000,g  7.0,3.2
# From MPEC 2020-W26
P/2020 S1 (PANSTARRS),e,13.7340,129.4591,254.8781,5.979899,0.0674005,0.50713434,358.9258,01/01.0/2021,2000,g 14.0,4.0
# From MPEC 2020-W26
C/2020 S2 (PANSTARRS),e,22.3982,197.6851,202.2674,10.18097,0.0303403,0.82751841,0.3052,01/01.0/2021,2000,g 17.0,4.0
# From MPEC 2020-W26
C/2020 S3 (Erasmus),e,19.8608,222.9952,349.8914,180.2902,0.0004071,0.99778992,0.0000,12/12.6703/2020,2000,g 13.5,3.2
# From MPEC 2020-W26
